[{"OBJECT_NAME":"STARLINK-31813","OBJECT_ID":"2024-118R","EPOCH":"2026-03-09T06:43:38.809056","MEAN_MOTION":15.3018502,"ECCENTRICITY":0.00011897,"INCLINATION":53.1618,"RA_OF_ASC_NODE":28.6209,"ARG_OF_PERICENTER":95.7666,"MEAN_ANOMALY":264.347,"EPHEMERIS_TYPE":0,"CLASSIFICATION_TYPE":"U","NORAD_CAT_ID":60128,"ELEMENT_SET_NO":999,"REV_AT_EPOCH":9563,"BSTAR":-4.0185054e-5,"MEAN_MOTION_DOT":-1.548e-5,"MEAN_MOTION_DDOT":0},{"OBJECT_NAME":"XCUBE-1","OBJECT_ID":"2024-247Z","EPOCH":"2026-03-09T11:35:28.885344","MEAN_MOTION":15.27910558,"ECCENTRICITY":0.00052355,"INCLINATION":44.9938,"RA_OF_ASC_NODE":117.7807,"ARG_OF_PERICENTER":331.1499,"MEAN_ANOMALY":28.9094,"EPHEMERIS_TYPE":0,"CLASSIFICATION_TYPE":"U","NORAD_CAT_ID":62400,"ELEMENT_SET_NO":999,"REV_AT_EPOCH":6770,"BSTAR":0.00036224252,"MEAN_MOTION_DOT":9.773e-5,"MEAN_MOTION_DDOT":0}]
