STARLINK-31813          
1 60128U 24118R   26068.28031029 -.00001548  00000+0 -40185-4 0  9991
2 60128  53.1618  28.6209 0001189  95.7666 264.3470 15.30185020 95632
XCUBE-1                 
1 62400U 24247Z   26068.48297321  .00009773  00000+0  36224-3 0  9994
2 62400  44.9938 117.7807 0005235 331.1499  28.9094 15.27910558 67702
